OBJECT_NAME,OBJECT_ID,EPOCH,MEAN_MOTION,ECCENTRICITY,INCLINATION,RA_OF_ASC_NODE,ARG_OF_PERICENTER,MEAN_ANOMALY,EPHEMERIS_TYPE,CLASSIFICATION_TYPE,NORAD_CAT_ID,ELEMENT_SET_NO,REV_AT_EPOCH,BSTAR,MEAN_MOTION_DOT,MEAN_MOTION_DDOT
CZ-2F DEB,2020-063D,2020-09-08T16:27:25.788960,15.47637418,.0116544,49.8675,44.1513,169.6230,190.7020,0,U,46392,999,67,.11643E-2,8.0707E-4,0
CZ-2F DEB,2020-063E,2020-09-08T17:02:28.247424,15.61966934,.0107063,50.4194,43.3179,222.3628,136.9129,0,U,46393,999,51,.11507E-2,1.38715E-3,0
CZ-2F DEB,2020-063F,2020-09-08T19:04:14.037024,15.54666715,.0114104,50.4628,43.1098,205.0071,154.5240,0,U,46394,999,56,.10712E-2,9.7579E-4,0
2020-063G,2020-063G,2020-09-08T20:34:34.468032,15.76752637,.0011892,50.2070,42.1142,309.0052,50.9869,0,U,46395,999,72,.54437E-4,8.328E-5,0
2020-064A,2020-064A,2020-09-09T04:51:50.673312,15.31798244,.0326550,97.3306,5.3398,164.6036,289.2895,0,U,46396,999,30,.00000E+0,-5.97E-6,.18911E-5
2020-064B,2020-064B,2020-09-09T03:46:20.853120,15.68182580,.0197360,97.2642,5.3562,144.2573,305.9646,0,U,46397,999,30,.00000E+0,-6.34E-6,.20067E-5
